IRIDIUM 171             
1 43929U 19002H   24366.47869097  .00000021  00000+0  44594-6 0  9994
2 43929  86.3987 216.4071 0002011  98.8378 261.3045 14.34217655312609
IRIDIUM 170             
1 43930U 19002J   24366.57023668  .00003251  00000+0  51160-3 0  9995
2 43930  86.6098 216.1541 0002378  80.0055 280.1431 14.72253809320898
IRIDIUM 167             
1 43931U 19002K   24366.33281025  .00000787  00000+0  27404-3 0  9998
2 43931  86.3973 216.2386 0001767  98.5603 261.5793 14.34216100312582
IRIDIUM 181             
1 56726U 23068S   24366.52064952  .00001409  00000+0  41031-3 0  9994
2 56726  86.6868 278.9086 0002433  92.9151 267.2329 14.43579355 85605
IRIDIUM 177             
1 56727U 23068T   24366.35152208  .00003949  00000+0  51602-3 0  9994
2 56727  86.1968 221.7321 0001887  86.5837 273.5599 14.80241172 87540
IRIDIUM 174             
1 56728U 23068U   24366.54888973  .00004234  00000+0  55376-3 0  9991
2 56728  86.1976 221.7574 0002300  90.3648 269.7836 14.80217215 87579
IRIDIUM 178             
1 56729U 23068V   24366.54347388  .00004042  00000+0  52827-3 0  9997
2 56729  86.5772 248.5602 0002717  89.9876 270.1657 14.80243543 87576
IRIDIUM 179             
1 56730U 23068W   24366.40282495  .00004243  00000+0  55463-3 0  9993
2 56730  86.6782 255.2378 0002350  82.1181 278.0308 14.80253123 87555
